{
  "type": "FeatureCollection",
  "features": [
    {
      "type": "Feature",
      "properties": {
        "norad_id": 31047,
        "name": "FENGYUN 1C DEB",
        "group": "fengyun-1c-debris",
        "lat": 15.799131292794783,
        "lon": -179.9751604038577,
        "alt_km": 829.7366707087194,
        "timestamp": "2025-12-26T11:25:45.474237+00:00",
        "meta_object_name": "FENGYUN 1C DEB",
        "meta_object_id": "1999-025BER",
        "meta_epoch": "2025-12-22T12:16:57.847296",
        "meta_mean_motion": 14.13857139,
        "meta_eccentricity": 0.00261016,
        "meta_inclination": 98.7012,
        "meta_ra_of_asc_node": 353.6831,
        "meta_arg_of_pericenter": 150.1278,
        "meta_mean_anomaly": 6.368,
        "meta_ephemeris_type": 0,
        "meta_classification_type": "U",
        "meta_norad_cat_id": 31047,
        "meta_element_set_no": 999,
        "meta_rev_at_epoch": 96497,
        "meta_bstar": 0.00037194236,
        "meta_mean_motion_dot": 6.64e-06,
        "meta_mean_motion_ddot": 0,
        "tle_line1": "1 31047U 99025BER 25356.51178064  .00000664  00000+0  37194-3 0  9995",
        "tle_line2": "2 31047  98.7012 353.6831 0026101 150.1278   6.3680 14.13857139964977"
      },
      "geometry": {
        "type": "Point",
        "coordinates": [
          -179.9751604038577,
          15.799131292794783
        ]
      }
    },
    {
      "type": "Feature",
      "properties": {
        "norad_id": 31051,
        "name": "FENGYUN 1C DEB",
        "group": "fengyun-1c-debris",
        "lat": 81.08418412736184,
        "lon": -67.79152080277237,
        "alt_km": 837.2513989722356,
        "timestamp": "2025-12-26T11:25:45.474247+00:00",
        "meta_object_name": "FENGYUN 1C DEB",
        "meta_object_id": "1999-025BEV",
        "meta_epoch": "2025-12-24T19:38:00.414240",
        "meta_mean_motion": 14.03039998,
        "meta_eccentricity": 0.00534769,
        "meta_inclination": 98.8164,
        "meta_ra_of_asc_node": 28.9954,
        "meta_arg_of_pericenter": 102.6706,
        "meta_mean_anomaly": 258.0447,
        "meta_ephemeris_type": 0,
        "meta_classification_type": "U",
        "meta_norad_cat_id": 31051,
        "meta_element_set_no": 999,
        "meta_rev_at_epoch": 63988,
        "meta_bstar": 0.00030067955,
        "meta_mean_motion_dot": 4.31e-06,
        "meta_mean_motion_ddot": 0,
        "tle_line1": "1 31051U 99025BEV 25358.81806035  .00000431  00000+0  30068-3 0  9996",
        "tle_line2": "2 31051  98.8164  28.9954 0053476 102.6706 258.0447 14.03039998639882"
      },
      "geometry": {
        "type": "Point",
        "coordinates": [
          -67.79152080277237,
          81.08418412736184
        ]
      }
    },
    {
      "type": "Feature",
      "properties": {
        "norad_id": 31053,
        "name": "FENGYUN 1C DEB",
        "group": "fengyun-1c-debris",
        "lat": 62.77722810802075,
        "lon": 104.43917843305067,
        "alt_km": 746.2330674109389,
        "timestamp": "2025-12-26T11:25:45.474256+00:00",
        "meta_object_name": "FENGYUN 1C DEB",
        "meta_object_id": "1999-025BEX",
        "meta_epoch": "2025-12-24T13:45:33.931296",
        "meta_mean_motion": 13.75910871,
        "meta_eccentricity": 0.03086955,
        "meta_inclination": 98.7943,
        "meta_ra_of_asc_node": 120.1919,
        "meta_arg_of_pericenter": 63.3862,
        "meta_mean_anomaly": 299.8565,
        "meta_ephemeris_type": 0,
        "meta_classification_type": "U",
        "meta_norad_cat_id": 31053,
        "meta_element_set_no": 999,
        "meta_rev_at_epoch": 93639,
        "meta_bstar": 0.0012850062,
        "meta_mean_motion_dot": 1.728e-05,
        "meta_mean_motion_ddot": 0,
        "tle_line1": "1 31053U 99025BEX 25358.57330939  .00001728  00000+0  12850-2 0  9994",
        "tle_line2": "2 31053  98.7943 120.1919 0308695  63.3862 299.8565 13.75910871936392"
      },
      "geometry": {
        "type": "Point",
        "coordinates": [
          104.43917843305067,
          62.77722810802075
        ]
      }
    },
    {
      "type": "Feature",
      "properties": {
        "norad_id": 31054,
        "name": "FENGYUN 1C DEB",
        "group": "fengyun-1c-debris",
        "lat": -17.65130041942779,
        "lon": -169.70410398788263,
        "alt_km": 859.8662514198095,
        "timestamp": "2025-12-26T11:25:45.474269+00:00",
        "meta_object_name": "FENGYUN 1C DEB",
        "meta_object_id": "1999-025BEY",
        "meta_epoch": "2025-12-25T13:07:45.070752",
        "meta_mean_motion": 14.12177235,
        "meta_eccentricity": 0.0010801,
        "meta_inclination": 98.6898,
        "meta_ra_of_asc_node": 12.1847,
        "meta_arg_of_pericenter": 87.401,
        "meta_mean_anomaly": 69.1197,
        "meta_ephemeris_type": 0,
        "meta_classification_type": "U",
        "meta_norad_cat_id": 31054,
        "meta_element_set_no": 999,
        "meta_rev_at_epoch": 96944,
        "meta_bstar": 0.00014512,
        "meta_mean_motion_dot": 2.24e-06,
        "meta_mean_motion_ddot": 0,
        "tle_line1": "1 31054U 99025BEY 25359.54704943  .00000224  00000+0  14512-3 0  9991",
        "tle_line2": "2 31054  98.6898  12.1847 0010801  87.4010  69.1197 14.12177235969444"
      },
      "geometry": {
        "type": "Point",
        "coordinates": [
          -169.70410398788263,
          -17.65130041942779
        ]
      }
    },
    {
      "type": "Feature",
      "properties": {
        "norad_id": 31055,
        "name": "FENGYUN 1C DEB",
        "group": "fengyun-1c-debris",
        "lat": -51.43222129481611,
        "lon": -159.8168992631385,
        "alt_km": 847.2834009580092,
        "timestamp": "2025-12-26T11:25:45.474278+00:00",
        "meta_object_name": "FENGYUN 1C DEB",
        "meta_object_id": "1999-025BEZ",
        "meta_epoch": "2025-12-25T22:58:14.257344",
        "meta_mean_motion": 14.10392623,
        "meta_eccentricity": 0.0024369,
        "meta_inclination": 98.7585,
        "meta_ra_of_asc_node": 30.8253,
        "meta_arg_of_pericenter": 233.3835,
        "meta_mean_anomaly": 244.5531,
        "meta_ephemeris_type": 0,
        "meta_classification_type": "U",
        "meta_norad_cat_id": 31055,
        "meta_element_set_no": 999,
        "meta_rev_at_epoch": 96308,
        "meta_bstar": 0.00033515,
        "meta_mean_motion_dot": 5.54e-06,
        "meta_mean_motion_ddot": 0,
        "tle_line1": "1 31055U 99025BEZ 25359.95710946  .00000554  00000+0  33515-3 0  9997",
        "tle_line2": "2 31055  98.7585  30.8253 0024369 233.3835 244.5531 14.10392623963081"
      },
      "geometry": {
        "type": "Point",
        "coordinates": [
          -159.8168992631385,
          -51.43222129481611
        ]
      }
    },
    {
      "type": "Feature",
      "properties": {
        "norad_id": 31056,
        "name": "FENGYUN 1C DEB",
        "group": "fengyun-1c-debris",
        "lat": 29.048594449687837,
        "lon": -22.232334485033316,
        "alt_km": 842.035357560705,
        "timestamp": "2025-12-26T11:25:45.474289+00:00",
        "meta_object_name": "FENGYUN 1C DEB",
        "meta_object_id": "1999-025BFA",
        "meta_epoch": "2025-12-26T04:47:50.179776",
        "meta_mean_motion": 14.14324328,
        "meta_eccentricity": 0.0024892,
        "meta_inclination": 98.6697,
        "meta_ra_of_asc_node": 342.3608,
        "meta_arg_of_pericenter": 303.7738,
        "meta_mean_anomaly": 119.2701,
        "meta_ephemeris_type": 0,
        "meta_classification_type": "U",
        "meta_norad_cat_id": 31056,
        "meta_element_set_no": 999,
        "meta_rev_at_epoch": 97008,
        "meta_bstar": 0.00035304,
        "meta_mean_motion_dot": 6.34e-06,
        "meta_mean_motion_ddot": 0,
        "tle_line1": "1 31056U 99025BFA 25360.19988634  .00000634  00000+0  35304-3 0  9994",
        "tle_line2": "2 31056  98.6697 342.3608 0024892 303.7738 119.2701 14.14324328970081"
      },
      "geometry": {
        "type": "Point",
        "coordinates": [
          -22.232334485033316,
          29.048594449687837
        ]
      }
    },
    {
      "type": "Feature",
      "properties": {
        "norad_id": 31057,
        "name": "FENGYUN 1C DEB",
        "group": "fengyun-1c-debris",
        "lat": -75.26715783591301,
        "lon": -176.35176750998303,
        "alt_km": 574.6810326705872,
        "timestamp": "2025-12-26T11:25:45.474298+00:00",
        "meta_object_name": "FENGYUN 1C DEB",
        "meta_object_id": "1999-025BFB",
        "meta_epoch": "2025-12-23T20:35:18.344544",
        "meta_mean_motion": 14.79509399,
        "meta_eccentricity": 0.01376332,
        "meta_inclination": 99.2549,
        "meta_ra_of_asc_node": 38.9584,
        "meta_arg_of_pericenter": 217.07,
        "meta_mean_anomaly": 142.094,
        "meta_ephemeris_type": 0,
        "meta_classification_type": "U",
        "meta_norad_cat_id": 31057,
        "meta_element_set_no": 999,
        "meta_rev_at_epoch": 62117,
        "meta_bstar": 0.0010448205,
        "meta_mean_motion_dot": 9.107e-05,
        "meta_mean_motion_ddot": 0,
        "tle_line1": "1 31057U 99025BFB 25357.85785121  .00009107  00000+0  10448-2 0  9995",
        "tle_line2": "2 31057  99.2549  38.9584 0137633 217.0700 142.0940 14.79509399621176"
      },
      "geometry": {
        "type": "Point",
        "coordinates": [
          -176.35176750998303,
          -75.26715783591301
        ]
      }
    }
  ]
}